{
  "norad_id": 37743,
  "name": "GLOBALSTAR M081",
  "history": [
    {
      "epoch": "2026-03-28T21:52:00.991776",
      "apogee_km": 1413.8196011817108,
      "perigee_km": 1413.413962479829,
      "latitude_deg": 40.09721278103921,
      "longitude_deg": -158.23223135992885,
      "semi_major_axis_km": 7791.75378183077,
      "eccentricity": 2.603e-05,
      "inclination_deg": 51.9952,
      "raan_deg": 80.0561,
      "arg_perigee_deg": 104.0057,
      "mean_anomaly_deg": 263.9987,
      "mean_motion_rev_day": 12.6226323
    },
    {
      "epoch": "2026-03-29T03:56:52.063008",
      "apogee_km": 1413.817747348311,
      "perigee_km": 1413.4156928563543,
      "latitude_deg": 1.6443539562758185,
      "longitude_deg": -133.90881887986325,
      "semi_major_axis_km": 7791.753720102332,
      "eccentricity": 2.58e-05,
      "inclination_deg": 51.9954,
      "raan_deg": 79.2847,
      "arg_perigee_deg": 103.2533,
      "mean_anomaly_deg": 336.6567,
      "mean_motion_rev_day": 12.62263245
    }
  ]
}